#aP2004  8 27  0  0  0.00000000      96 ORBIT IGb00 HLM  IGS
## 1285 432000.00000000   900.00000000 53244 0.0000000000000
+   29     1  3  4  5  6  7  8  9 10 11 13 14 15 16 17 18 19
+         20 21 22 23 24 25 26 27 28 29 30 31  0  0  0  0  0
+          0  0  0  0  0  0  0  0  0  0  0  0  0  0  0  0  0
+          0  0  0  0  0  0  0  0  0  0  0  0  0  0  0  0  0
+          0  0  0  0  0  0  0  0  0  0  0  0  0  0  0  0  0
++         3  3  3  3  3  3  3  3  3  4  4  4  3  4  3  4  4
++         4  3  3  4  3  3  3  3  4  3  3  3  0  0  0  0  0
++         0  0  0  0  0  0  0  0  0  0  0  0  0  0  0  0  0
++         0  0  0  0  0  0  0  0  0  0  0  0  0  0  0  0  0
++         0  0  0  0  0  0  0  0  0  0  0  0  0  0  0  0  0
%c cc cc ccc ccc cccc cccc cccc cccc ccccc ccccc ccccc ccccc
%c cc cc ccc ccc cccc cccc cccc cccc ccccc ccccc ccccc ccccc
%f  0.0000000  0.000000000  0.00000000000  0.000000000000000
%f  0.0000000  0.000000000  0.00000000000  0.000000000000000
%i    0    0    0    0      0      0      0      0         0
%i    0    0    0    0      0      0      0      0         0
/* FINAL ORBIT COMBINATION FROM WEIGHTED AVERAGE OF:        
/* cod emr esa gfz jpl mit ngs sio                          
/* REFERENCED TO IGS TIME AND TO WEIGHTED MEAN POLE:        
/* CLK ANT Z-OFFSET (M): II/IIA 1.023; IIR 0.000            
*  2004  8 27 11  0  0.00000000
P  1  -8130.712788  21807.353797 -12582.981233    360.222845
P  3 -12570.910473  13663.735907  18806.144402     39.045298
P  4  22660.929644  -2220.798411 -13925.433326   -268.192150
P  5  -1432.149542 -17046.107926 -20495.996614     46.119429
P  6  -7515.712005 -24166.191082   8047.998145    398.198432
P  7  15387.453333   7642.328469 -19875.325238    385.877972
P  8  17763.628877   4879.013823  19063.252263     -7.666573
P  9   9946.841989 -19692.219883 -14983.191557     -1.782356
P 10  16416.104807  -6308.635168  19930.762516     49.622477
P 11  -8120.819413  20806.893827 -14266.272892    144.099647
P 13   7381.675555  23477.701616  10012.861277    -23.212487
P 14 -14184.910384  -9001.149690 -20532.273076    -25.970011
P 15 -22753.195643   1398.779297  13653.311845    312.179285
P 16 -20945.157160   1880.201530  16317.414169      6.790140
P 17  18831.111776 -15908.275205   9007.900400   -136.714689
P 18 -17642.296860 -17755.632325   9289.879990    -69.463705
P 19  -7523.358237  23374.636784  10304.637071     -9.537629
P 20   3250.144603  17282.569552 -19976.930974   -129.109323
P 21 -11049.938002 -11242.686046  21397.675897     78.775088
P 22 -23310.190806 -12587.589659  -1604.928695     15.917387
P 23  -1290.367697  26264.627355  -3465.240670    157.550138
P 24  23788.378860 -11628.853505  -2291.202118     52.838154
P 25 -22887.671812   7690.385515 -10705.343225     74.321169
P 26   8499.667476 -20636.378042  13623.090413    206.191721
P 27  10351.060007  11849.438171  21920.775018    382.649820
P 28  23966.436861  11729.234514  -1442.709259     40.643638
P 29  10488.716515 -17511.774271  17194.641216    357.383837
P 30 -13075.243039 -18129.553670 -14666.866400    552.412153
P 31  14452.576502  13623.700027 -17817.808095    301.472721
*  2004  8 27 11 15  0.00000000
P  1  -8368.141606  20222.906250 -14842.788944    360.223918
P  3 -13061.350238  11459.003856  19927.867557     39.048253
P  4  21325.561786  -1151.482526 -15979.844005   -268.206427
P  5    788.734759 -16244.517973 -21159.912334     46.120270
P  6  -7272.093719 -24944.276139   5379.963353    398.223059
P  7  15543.122654   9935.964622 -18745.710537    385.859005
P  8  15884.647601   6169.631333  20266.616007     -7.667926
P  9  11317.562125 -20417.155574 -12780.915767     -1.783761
P 10  18344.692608  -5248.072666  18535.066039     49.622118
P 11  -9496.751445  21551.117976 -12139.609782    144.102540
P 13   7276.310563  24483.331857   7348.331580    -23.211862
P 14 -14266.588581 -11284.866709 -19315.039370    -25.970651
P 15 -21358.674849    404.302667  15751.172423    312.186953
P 16 -22433.028666    965.866327  14285.523702      6.789577
P 17  19726.106442 -16065.387466   6279.366225   -136.723343
P 18 -16498.582320 -17363.967453  11783.059787    -69.467659
P 19  -7761.779778  22077.846812  12723.100751     -9.535958
P 20   1111.470117  16362.052775 -20965.217816   -129.105965
P 21  -8951.061113 -12537.888283  21618.380137     78.775356
P 22 -23218.742256 -12830.005686   1252.497335     15.916982
P 23  -1585.770018  25739.749521  -6254.256546    157.558133
P 24  23516.589464 -11198.229906  -5116.285262     52.840506
P 25 -21952.109725   6599.715406 -13053.511973     74.323059
P 26   8792.386883 -18903.108202  15791.765981    206.202346
P 27   8430.571909  13293.008473  21872.834297    382.664416
P 28  23884.601111  11950.756642   1392.135624     40.643896
P 29  10793.011600 -15514.624664  18875.822252    357.374876
P 30 -11394.182464 -17600.455379 -16606.710844    552.409808
P 31  14484.910244  15535.713320 -16083.113794    301.481383
*  2004  8 27 11 30  0.00000000
P  1  -8718.698284  18411.070648 -16843.789743    360.225950
P  3 -13674.814561   9175.969508  20701.969556     39.051346
P  4  19872.711077    115.704962 -17762.715475   -268.220793
P  5   3098.938504 -15534.746545 -21464.921730     46.121629
P  6  -7017.231415 -25431.291530   2619.075670    398.247631
P  7  15780.887757  12070.224919 -17283.884363    385.839875
P  8  13978.527378   7628.261483  21118.019180     -7.669165
P  9  12454.177013 -21045.027607 -10360.044224     -1.786063
P 10  20165.255885  -4366.478219  16821.874018     49.622309
P 11 -10658.401015  22180.759401  -9802.496897    144.105260
P 13   7189.370775  25185.860695   4557.571000    -23.211271
P 14 -14452.476533 -13404.508187 -17764.386629    -25.971098
P 15 -19830.957191   -787.449477  17577.378673    312.192274
P 16 -23742.083198    222.970753  12009.242514      6.789009
P 17  20339.227108 -16102.481634   3438.338094   -136.731778
P 18 -15090.867017 -16919.940894  14076.461649    -69.471047
P 19  -8087.577765  20535.982630  14924.497857     -9.534040
P 20  -1157.196238  15521.519748 -21595.077229   -129.102745
P 21  -6913.704693 -13942.505199  21466.496665     78.775780
P 22 -22849.864997 -12936.706786   4088.371986     15.917026
P 23  -1948.709077  24924.103981  -8935.347270    157.566122
P 24  23009.501589 -10571.295681  -7853.120037     52.842208
P 25 -20882.694148   5289.616951 -15172.358531     74.323967
P 26   9206.145595 -16956.494110  17675.856700    206.213405
P 27   6602.606963  14820.821024  21464.514537    382.678942
P 28  23523.472055  12051.073239   4203.528693     40.644869
P 29  11233.120866 -13370.324897  20237.664408    357.366639
P 30  -9501.232671 -17085.004428 -18266.701621    552.407425
P 31  14570.086155  17241.596850 -14074.227215    301.490164
*  2004  8 27 11 45  0.00000000
P  1  -9204.856944  16411.627907 -18550.729350    360.225811
P  3 -14410.852923   6861.082915  21115.526463     39.053773
P  4  18345.917141   1577.232486 -19243.124935   -268.234928
P  5   5455.875688 -14934.420232 -21405.416111     46.123283
P  6  -6715.624720 -25623.605342   -187.119740    398.272331
P  7  16075.214003  14008.110193 -15516.887916    385.820902
P  8  12090.244765   9235.989250  21601.463627     -7.670140
P  9  13356.221950 -21534.697567  -7760.869965     -1.788310
P 10  21832.013816  -3658.136199  14821.163673     49.622729
P 11 -11607.928668  22659.287561  -7295.324707    144.108023
P 13   7081.678170  25576.746830   1688.583244    -23.210611
P 14 -14716.086632 -15320.678219 -15907.183286    -25.971850
P 15 -18214.563950  -2175.562601  19099.417292    312.197912
P 16 -24833.813625   -364.993793   9527.378717      6.788624
P 17  20678.918718 -15981.380589    535.474806   -136.740378
P 18 -13432.489809 -16462.783321  16131.017796    -69.474007
P 19  -8526.722708  18782.194079  16871.451479     -9.532474
P 20  -3514.614969  14786.186591 -21855.834102   -129.099572
P 21  -4976.267092 -15426.874906  20943.329787     78.776415
P 22 -22193.623045 -12943.860258   6854.003261     15.916479
P 23  -2411.286621  23839.898645 -11462.469746    157.573900
P 24  22299.429715  -9726.698512 -10454.018660     52.844664
P 25 -19721.095475   3762.326318 -17023.771709     74.325443
P 26   9760.645820 -14840.964740  19241.910932    206.224502
P 27   4897.800546  16398.939734  20700.918831    382.693538
P 28  22874.902572  12066.602514   6944.216325     40.645353
P 29  11820.202775 -11125.052638  21257.868282    357.357944
P 30  -7424.298788 -16615.984102 -19619.166601    552.405067
P 31  14676.914311  18713.296159 -11824.281224    301.498876
EOF
